     3.03           N                                       RINEX VERSION / TYPE
MergeRinexNaviV1.0  CSNO-TARC           20240117 133105 UTC PGM / RUN BY / DATE
BROADCAST EPH FROM BDS B1I AND B3I SIGNALS                  COMMENT
BDSA   0.4098E-07  0.4470E-07 -0.9537E-06  0.1490E-05 a C34 IONOSPHERIC CORR
BDSB   0.1188E+06 -0.3277E+05 -0.4587E+06  0.8520E+06 a C34 IONOSPHERIC CORR
BDSA   0.4098E-07  0.4470E-07 -0.9537E-06  0.1490E-05 b C05 IONOSPHERIC CORR
BDSB   0.1188E+06 -0.3277E+05 -0.4587E+06  0.8520E+06 b C05 IONOSPHERIC CORR
BDSA   0.3912E-07  0.2980E-07 -0.8345E-06  0.1311E-05 c C05 IONOSPHERIC CORR
BDSB   0.1167E+06  0.9830E+05 -0.1180E+07  0.1442E+07 c C05 IONOSPHERIC CORR
BDSA   0.3912E-07  0.2980E-07 -0.8345E-06  0.1311E-05 d C05 IONOSPHERIC CORR
BDSB   0.1167E+06  0.9830E+05 -0.1180E+07  0.1442E+07 d C05 IONOSPHERIC CORR
BDSA   0.3912E-07  0.2980E-07 -0.8345E-06  0.1311E-05 e C27 IONOSPHERIC CORR
BDSB   0.1167E+06  0.9830E+05 -0.1180E+07  0.1442E+07 e C27 IONOSPHERIC CORR
BDSA   0.4005E-07  0.2980E-07 -0.8345E-06  0.1311E-05 f C05 IONOSPHERIC CORR
BDSB   0.1147E+06  0.1147E+06 -0.1245E+07  0.1442E+07 f C05 IONOSPHERIC CORR
BDSA   0.4005E-07  0.2980E-07 -0.8345E-06  0.1311E-05 g C05 IONOSPHERIC CORR
BDSB   0.1147E+06  0.1147E+06 -0.1245E+07  0.1442E+07 g C05 IONOSPHERIC CORR
BDSA   0.4005E-07  0.3725E-07 -0.8941E-06  0.1430E-05 h C05 IONOSPHERIC CORR
BDSB   0.1147E+06  0.1147E+06 -0.1245E+07  0.1442E+07 h C05 IONOSPHERIC CORR
BDSA   0.4005E-07  0.3725E-07 -0.8941E-06  0.1430E-05 i C26 IONOSPHERIC CORR
BDSB   0.1147E+06  0.1147E+06 -0.1245E+07  0.1442E+07 i C26 IONOSPHERIC CORR
BDSA   0.3912E-07  0.6705E-07 -0.1073E-05  0.1669E-05 j C05 IONOSPHERIC CORR
BDSB   0.1167E+06  0.6554E+05 -0.9830E+06  0.1245E+07 j C05 IONOSPHERIC CORR
BDSA   0.3912E-07  0.6705E-07 -0.1073E-05  0.1669E-05 k C24 IONOSPHERIC CORR
BDSB   0.1167E+06  0.6554E+05 -0.9830E+06  0.1245E+07 k C24 IONOSPHERIC CORR
BDSA   0.4098E-07  0.3725E-07 -0.8941E-06  0.1490E-05 l C22 IONOSPHERIC CORR
BDSB   0.1167E+06  0.1638E+05 -0.7864E+06  0.1114E+07 l C22 IONOSPHERIC CORR
BDSA   0.3632E-07  0.1267E-06 -0.1311E-05  0.1967E-05 m C05 IONOSPHERIC CORR
BDSB   0.1188E+06  0.1638E+05 -0.7864E+06  0.1180E+07 m C05 IONOSPHERIC CORR
BDSA   0.4098E-07  0.3725E-07 -0.8941E-06  0.1490E-05 u C57 IONOSPHERIC CORR
BDSB   0.1167E+06  0.1638E+05 -0.7864E+06  0.1114E+07 u C57 IONOSPHERIC CORR
BDS1   0.2637E+02 -0.3875E+01  0.9125E+01             a C46 IONOSPHERIC CORR
BDS2   0.7375E+01 -0.8875E+01  0.8750E+00             a C46 IONOSPHERIC CORR
BDS3   0.0000E+00  0.1375E+01  0.3750E+00             a C46 IONOSPHERIC CORR
BDS1   0.2637E+02 -0.3875E+01  0.9125E+01             b C39 IONOSPHERIC CORR
BDS2   0.7375E+01 -0.9000E+01  0.8750E+00             b C39 IONOSPHERIC CORR
BDS3   0.0000E+00  0.1375E+01  0.6250E+00             b C39 IONOSPHERIC CORR
BDS1   0.2637E+02 -0.3875E+01  0.9125E+01             c C40 IONOSPHERIC CORR
BDS2   0.7375E+01 -0.9000E+01  0.8750E+00             c C40 IONOSPHERIC CORR
BDS3   0.0000E+00  0.1375E+01  0.6250E+00             c C40 IONOSPHERIC CORR
BDS1   0.2637E+02 -0.3750E+01  0.9000E+01             d C43 IONOSPHERIC CORR
BDS2   0.7250E+01 -0.9125E+01  0.8750E+00             d C43 IONOSPHERIC CORR
BDS3   0.0000E+00  0.1250E+01  0.6250E+00             d C43 IONOSPHERIC CORR
BDS1   0.2637E+02 -0.3750E+01  0.9000E+01             e C27 IONOSPHERIC CORR
BDS2   0.7250E+01 -0.9125E+01  0.8750E+00             e C27 IONOSPHERIC CORR
BDS3   0.0000E+00  0.1250E+01  0.6250E+00             e C27 IONOSPHERIC CORR
BDS1   0.2637E+02 -0.3750E+01  0.9000E+01             f C21 IONOSPHERIC CORR
BDS2   0.7250E+01 -0.9125E+01  0.8750E+00             f C21 IONOSPHERIC CORR
BDS3   0.0000E+00  0.1125E+01  0.5000E+00             f C21 IONOSPHERIC CORR
BDS1   0.2637E+02 -0.3750E+01  0.9000E+01             g C29 IONOSPHERIC CORR
BDS2   0.7250E+01 -0.9125E+01  0.8750E+00             g C29 IONOSPHERIC CORR
BDS3   0.0000E+00  0.1125E+01  0.5000E+00             g C29 IONOSPHERIC CORR
BDS1   0.2637E+02 -0.3750E+01  0.9000E+01             h C24 IONOSPHERIC CORR
BDS2   0.7250E+01 -0.9125E+01  0.7500E+00             h C24 IONOSPHERIC CORR
BDS3   0.0000E+00  0.1125E+01  0.5000E+00             h C24 IONOSPHERIC CORR
BDS1   0.2637E+02 -0.3750E+01  0.9000E+01             i C26 IONOSPHERIC CORR
BDS2   0.7250E+01 -0.9125E+01  0.7500E+00             i C26 IONOSPHERIC CORR
BDS3   0.0000E+00  0.1125E+01  0.5000E+00             i C26 IONOSPHERIC CORR
BDS1   0.2650E+02 -0.3750E+01  0.9250E+01             j C35 IONOSPHERIC CORR
BDS2   0.7375E+01 -0.9250E+01  0.7500E+00             j C35 IONOSPHERIC CORR
BDS3   0.0000E+00  0.1250E+01  0.6250E+00             j C35 IONOSPHERIC CORR
BDS1   0.2650E+02 -0.3750E+01  0.9250E+01             k C24 IONOSPHERIC CORR
BDS2   0.7375E+01 -0.9250E+01  0.7500E+00             k C24 IONOSPHERIC CORR
BDS3   0.0000E+00  0.1250E+01  0.6250E+00             k C24 IONOSPHERIC CORR
BDS1   0.2650E+02 -0.3625E+01  0.9250E+01             l C23 IONOSPHERIC CORR
BDS2   0.7375E+01 -0.9250E+01  0.7500E+00             l C23 IONOSPHERIC CORR
BDS3   0.0000E+00  0.1250E+01  0.6250E+00             l C23 IONOSPHERIC CORR
BDS1   0.2650E+02 -0.3625E+01  0.9250E+01             m C22 IONOSPHERIC CORR
BDS2   0.7375E+01 -0.9250E+01  0.7500E+00             m C22 IONOSPHERIC CORR
BDS3   0.0000E+00  0.1250E+01  0.6250E+00             m C22 IONOSPHERIC CORR
                                                            END OF HEADER
C05 2024 01 17 04 00 00-0.568766030483E-03-0.621200868523E-10 0.000000000000E+00
     0.100000000000E+01 0.656093750000E+02-0.828605943335E-09-0.917476727400E+00
     0.228686258197E-05 0.906171277165E-03 0.131651759148E-04 0.649333470535E+04
     0.273600000000E+06-0.260770320892E-07-0.169817998730E+01-0.745058059692E-07
     0.102955658391E+00-0.393984375000E+03-0.153922146369E+01 0.192793744919E-08
     0.164292557730E-09 0.000000000000E+00 0.941000000000E+03 0.000000000000E+00
     0.200000000000E+01 0.000000000000E+00 0.100000000000E-09-0.910000000000E-08
     0.273600000000E+06 0.000000000000E+00
C06 2024 01 17 04 00 00 0.527643132955E-04 0.228190799589E-10 0.000000000000E+00
     0.100000000000E+01-0.286531250000E+03 0.914323799542E-09-0.132020883483E+01
    -0.926991924643E-05 0.386282417458E-02 0.264183618128E-04 0.649346912766E+04
     0.273600000000E+06 0.377185642719E-07 0.101195646812E+01-0.463798642158E-06
     0.946473222260E+00-0.568765625000E+03-0.297528436957E+01-0.185757737555E-08
    -0.445018536808E-09 0.000000000000E+00 0.941000000000E+03 0.000000000000E+00
     0.200000000000E+01 0.000000000000E+00 0.850000000000E-08-0.130000000000E-08
     0.273600000000E+06 0.000000000000E+00
C07 2024 01 17 04 00 00-0.649931025691E-03-0.610400618939E-10 0.000000000000E+00
     0.100000000000E+01 0.136453125000E+03 0.226509435027E-08 0.255774955731E+01
     0.448850914836E-05 0.311042356770E-02-0.202935189009E-05 0.649282672119E+04
     0.273600000000E+06-0.148080289364E-06 0.296248851478E+01 0.214204192162E-06
     0.858349758193E+00 0.263593750000E+03-0.258768967530E+01-0.301548274982E-08
    -0.223937899341E-09 0.160000000000E+02 0.941000000000E+03 0.000000000000E+00
     0.200000000000E+01 0.000000000000E+00 0.143000000000E-07 0.130000000000E-08
     0.273600000000E+06 0.000000000000E+00
C08 2024 01 17 04 00 00 0.107147963718E-03-0.267963429223E-10 0.000000000000E+00
     0.200000000000E+01-0.196718750000E+02 0.870750555970E-09 0.927102955114E+00
    -0.409781932831E-06 0.285110389814E-02 0.124620273709E-04 0.649287876320E+04
     0.273600000000E+06 0.251922756433E-06-0.112315324875E+01-0.236090272665E-06
     0.106662356186E+01-0.109515625000E+03-0.313886500333E+01-0.193329481520E-08
     0.628954769919E-09 0.160000000000E+02 0.941000000000E+03 0.000000000000E+00
     0.200000000000E+01 0.000000000000E+00 0.110000000000E-07-0.300000000000E-09
     0.273600000000E+06 0.100000000000E+01
C09 2024 01 17 04 00 00-0.363148981705E-03-0.508526554199E-10 0.000000000000E+00
     0.100000000000E+01-0.218125000000E+03 0.879322341591E-09-0.226079014429E+01
    -0.707898288965E-05 0.115960246185E-01 0.267396681011E-04 0.649303557968E+04
     0.273600000000E+06-0.204890966415E-06 0.105702122945E+01-0.436324626207E-06
     0.951778727279E+00-0.583890625000E+03-0.234053582469E+01-0.173614374593E-08
    -0.323227749447E-09 0.000000000000E+00 0.941000000000E+03 0.000000000000E+00
     0.200000000000E+01 0.000000000000E+00 0.690000000000E-08 0.410000000000E-08
     0.273600000000E+06 0.000000000000E+00
C10 2024 01 17 04 00 00 0.122988480143E-03-0.148325796090E-10 0.000000000000E+00
     0.100000000000E+01 0.144953125000E+03 0.222759278818E-08 0.223520096118E+01
     0.470411032438E-05 0.933608505875E-02-0.135228037834E-05 0.649310780907E+04
     0.273600000000E+06-0.372529029846E-07 0.295687959031E+01 0.242143869400E-06
     0.860608886992E+00 0.240203125000E+03-0.244343239728E+01-0.291547858424E-08
    -0.227509476683E-09 0.160000000000E+02 0.941000000000E+03 0.000000000000E+00
     0.200000000000E+01 0.000000000000E+00 0.540000000000E-08 0.340000000000E-08
     0.273600000000E+06 0.000000000000E+00
C11 2024 01 17 04 00 00 0.362118822522E-03 0.193089988443E-10-0.365918233214E-18
     0.110000000000E+02-0.194531250000E+02 0.336621164480E-08-0.240001265953E+01
    -0.922940671444E-06 0.223049684428E-02 0.909017398953E-05 0.528263416100E+04
     0.273600000000E+06 0.651925802231E-07-0.241845793821E+01 0.488944351673E-07
     0.985075954059E+00 0.188515625000E+03-0.163695260860E+01-0.662384733840E-08
    -0.232152527227E-09 0.000000000000E+00 0.941000000000E+03 0.000000000000E+00
     0.200000000000E+01 0.000000000000E+00 0.340000000000E-08 0.190000000000E-08
     0.273600000000E+06 0.100000000000E+02
C12 2024 01 17 04 00 00 0.794318388216E-03-0.104511954646E-10 0.257498015965E-18
     0.140000000000E+02-0.256406250000E+02 0.338478384698E-08-0.168846103838E+01
    -0.122468918562E-05 0.133187894244E-02 0.848900526762E-05 0.528263143158E+04
     0.273600000000E+06-0.572763383388E-07-0.243096832062E+01 0.535510480404E-07
     0.983494207533E+00 0.201718750000E+03-0.153770766386E+01-0.667349226345E-08
    -0.232866842696E-09 0.000000000000E+00 0.941000000000E+03 0.000000000000E+00
     0.200000000000E+01 0.000000000000E+00 0.240000000000E-08 0.400000000000E-09
     0.273600000000E+06 0.130000000000E+02
